*******************************************************************************
Ephemeris / WWW_USER Thu Dec  5 18:37:07 2024 Pasadena, USA      / Horizons    
*******************************************************************************
Target body name: 62412 (2000 SY178)              {source: JPL#44}
Center body name: Earth (399)                     {source: DE441}
Center-site name: Mauna Kea
*******************************************************************************
Start time      : A.D. 2018-Oct-10 04:12:00.0000 UT      
Stop  time      : A.D. 2018-Oct-10 16:05:00.0000 UT      
Step-size       : 1 minutes
*******************************************************************************
Target pole/equ : undefined
Target radii    : 5.187 km                                                     
Center geodetic : 204.5278, 19.8260847, 4.21024   {E-lon(deg),Lat(deg),Alt(km)}
Center cylindric: 204.5278, 6006.35451, 2151.0229 {E-lon(deg),Dxy(km),Dz(km)}
Center pole/equ : ITRF93                          {East-longitude positive}
Center radii    : 6378.137, 6378.137, 6356.752 km {Equator_a, b, pole_c}       
Target primary  : Sun
Vis. interferer : MOON (R_eq= 1737.400) km        {source: DE441}
Rel. light bend : Sun                             {source: DE441}
Rel. lght bnd GM: 1.3271E+11 km^3/s^2                                          
Small-body perts: Yes                             {source: SB441-N16}
Atmos refraction: NO (AIRLESS)
RA format       : HMS
Time format     : CAL 
Calendar mode   : Mixed Julian/Gregorian
RTS-only print  : NO       
EOP file        : eop.241205.p250303                                           
EOP coverage    : DATA-BASED 1962-JAN-20 TO 2024-DEC-05. PREDICTS-> 2025-MAR-02
Units conversion: 1 au= 149597870.700 km, c= 299792.458 km/s, 1 day= 86400.0 s 
Table cut-offs 1: Elevation (-90.0deg=NO ),Airmass (>38.000=NO), Daylight (YES)
Table cut-offs 2: Solar elongation (  0.0,180.0=NO ),Local Hour Angle( 0.0=NO )
Table cut-offs 3: RA/DEC angular rate (     0.0=NO )                           
*******************************************************************************
Initial IAU76/J2000 heliocentric ecliptic osculating elements (au, days, deg.):
  EPOCH=  2458127.5 ! 2018-Jan-09.00 (TDB)         Residual RMS= .2787         
   EC= .08141730682229319  QR= 2.89613208739257    TP= 2458420.6685284483      
   OM= 329.1525583823792   W=  163.0619562799197   IN= 4.73619265468861        
  Equivalent ICRF heliocentric cartesian coordinates (au, au/d):
   X= 8.831945932166756E-01  Y= 2.532168596675914E+00  Z= 1.360803999508301E+00
  VX=-9.867256226021401E-03 VY= 2.254941400948641E-03 VZ= 7.028227572403328E-04
Asteroid physical parameters (km, seconds, rotational period in hours):        
   GM= n.a.                RAD= 5.187              ROTPER= 3.33                
   H= 13.88                G= .150                 B-V= n.a.                   
                           ALBEDO= .065            STYP= n.a.                  
*******************************************************************************
 Date__(UT)__HR:MN     R.A._________(ICRF)_________DEC
******************************************************
$$SOE
 2018-Oct-10 08:18     09 48 08.706657 +14 47 53.85470
 2018-Oct-10 08:19     09 48 08.762645 +14 47 53.54766
 2018-Oct-10 08:20     09 48 08.818631 +14 47 53.24064
 2018-Oct-10 08:21     09 48 08.874616 +14 47 52.93362
 2018-Oct-10 08:22     09 48 08.930600 +14 47 52.62662
 2018-Oct-10 08:23     09 48 08.986582 +14 47 52.31962
 2018-Oct-10 08:24     09 48 09.042563 +14 47 52.01264
 2018-Oct-10 08:25     09 48 09.098542 +14 47 51.70567
 2018-Oct-10 08:26     09 48 09.154520 +14 47 51.39871
 2018-Oct-10 08:27     09 48 09.210497 +14 47 51.09176
 2018-Oct-10 08:28     09 48 09.266471 +14 47 50.78482
 2018-Oct-10 08:29     09 48 09.322445 +14 47 50.47789
 2018-Oct-10 08:30     09 48 09.378417 +14 47 50.17098
 2018-Oct-10 08:31     09 48 09.434387 +14 47 49.86407
 2018-Oct-10 08:32     09 48 09.490356 +14 47 49.55718
 2018-Oct-10 08:33     09 48 09.546324 +14 47 49.25029
 2018-Oct-10 08:34     09 48 09.602289 +14 47 48.94342
 2018-Oct-10 08:35     09 48 09.658254 +14 47 48.63656
 2018-Oct-10 08:36     09 48 09.714216 +14 47 48.32971
 2018-Oct-10 08:37     09 48 09.770178 +14 47 48.02287
 2018-Oct-10 08:38     09 48 09.826137 +14 47 47.71604
 2018-Oct-10 08:39     09 48 09.882095 +14 47 47.40922
 2018-Oct-10 08:40     09 48 09.938051 +14 47 47.10241
 2018-Oct-10 08:41     09 48 09.994006 +14 47 46.79561
 2018-Oct-10 08:42     09 48 10.049959 +14 47 46.48883
 2018-Oct-10 08:43     09 48 10.105910 +14 47 46.18205
 2018-Oct-10 08:44     09 48 10.161860 +14 47 45.87528
 2018-Oct-10 08:45     09 48 10.217808 +14 47 45.56853
 2018-Oct-10 08:46     09 48 10.273754 +14 47 45.26179
 2018-Oct-10 08:47     09 48 10.329698 +14 47 44.95505
 2018-Oct-10 08:48     09 48 10.385641 +14 47 44.64833
 2018-Oct-10 08:49     09 48 10.441582 +14 47 44.34162
 2018-Oct-10 08:50     09 48 10.497522 +14 47 44.03492
 2018-Oct-10 08:51     09 48 10.553459 +14 47 43.72822
 2018-Oct-10 08:52     09 48 10.609395 +14 47 43.42154
 2018-Oct-10 08:53     09 48 10.665329 +14 47 43.11487
 2018-Oct-10 08:54     09 48 10.721261 +14 47 42.80821
 2018-Oct-10 08:55     09 48 10.777192 +14 47 42.50156
 2018-Oct-10 08:56     09 48 10.833120 +14 47 42.19492
 2018-Oct-10 08:57     09 48 10.889047 +14 47 41.88829
 2018-Oct-10 08:58     09 48 10.944972 +14 47 41.58168
 2018-Oct-10 08:59     09 48 11.000895 +14 47 41.27507
 2018-Oct-10 09:00     09 48 11.056816 +14 47 40.96847
 2018-Oct-10 09:01     09 48 11.112735 +14 47 40.66188
 2018-Oct-10 09:02     09 48 11.168652 +14 47 40.35530
 2018-Oct-10 09:03     09 48 11.224568 +14 47 40.04874
 2018-Oct-10 09:04     09 48 11.280481 +14 47 39.74218
 2018-Oct-10 09:05     09 48 11.336393 +14 47 39.43563
 2018-Oct-10 09:06     09 48 11.392303 +14 47 39.12909
 2018-Oct-10 09:07     09 48 11.448210 +14 47 38.82257
 2018-Oct-10 09:08     09 48 11.504116 +14 47 38.51605
 2018-Oct-10 09:09     09 48 11.560020 +14 47 38.20954
 2018-Oct-10 09:10     09 48 11.615921 +14 47 37.90305
 2018-Oct-10 09:11     09 48 11.671821 +14 47 37.59656
 2018-Oct-10 09:12     09 48 11.727719 +14 47 37.29008
 2018-Oct-10 09:13     09 48 11.783615 +14 47 36.98361
 2018-Oct-10 09:14     09 48 11.839508 +14 47 36.67716
 2018-Oct-10 09:15     09 48 11.895400 +14 47 36.37071
 2018-Oct-10 09:16     09 48 11.951289 +14 47 36.06427
 2018-Oct-10 09:17     09 48 12.007177 +14 47 35.75784
 2018-Oct-10 09:18     09 48 12.063062 +14 47 35.45142
 2018-Oct-10 09:19     09 48 12.118945 +14 47 35.14502
 2018-Oct-10 09:20     09 48 12.174827 +14 47 34.83862
 2018-Oct-10 09:21     09 48 12.230706 +14 47 34.53223
 2018-Oct-10 09:22     09 48 12.286583 +14 47 34.22585
 2018-Oct-10 09:23     09 48 12.342457 +14 47 33.91948
 2018-Oct-10 09:24     09 48 12.398330 +14 47 33.61312
 2018-Oct-10 09:25     09 48 12.454200 +14 47 33.30677
 2018-Oct-10 09:26     09 48 12.510069 +14 47 33.00042
 2018-Oct-10 09:27     09 48 12.565935 +14 47 32.69409
 2018-Oct-10 09:28     09 48 12.621799 +14 47 32.38777
 2018-Oct-10 09:29     09 48 12.677660 +14 47 32.08146
 2018-Oct-10 09:30     09 48 12.733520 +14 47 31.77515
 2018-Oct-10 09:31     09 48 12.789377 +14 47 31.46886
 2018-Oct-10 09:32     09 48 12.845232 +14 47 31.16257
 2018-Oct-10 09:33     09 48 12.901085 +14 47 30.85630
 2018-Oct-10 09:34     09 48 12.956935 +14 47 30.55003
 2018-Oct-10 09:35     09 48 13.012783 +14 47 30.24377
 2018-Oct-10 09:36     09 48 13.068629 +14 47 29.93752
 2018-Oct-10 09:37     09 48 13.124473 +14 47 29.63128
 2018-Oct-10 09:38     09 48 13.180314 +14 47 29.32505
 2018-Oct-10 09:39     09 48 13.236153 +14 47 29.01883
 2018-Oct-10 09:40     09 48 13.291990 +14 47 28.71262
 2018-Oct-10 09:41     09 48 13.347824 +14 47 28.40642
 2018-Oct-10 09:42     09 48 13.403656 +14 47 28.10022
 2018-Oct-10 09:43     09 48 13.459486 +14 47 27.79404
 2018-Oct-10 09:44     09 48 13.515313 +14 47 27.48786
 2018-Oct-10 09:45     09 48 13.571138 +14 47 27.18169
 2018-Oct-10 09:46     09 48 13.626960 +14 47 26.87553
 2018-Oct-10 09:47     09 48 13.682780 +14 47 26.56938
 2018-Oct-10 09:48     09 48 13.738598 +14 47 26.26324
 2018-Oct-10 09:49     09 48 13.794413 +14 47 25.95711
 2018-Oct-10 09:50     09 48 13.850226 +14 47 25.65099
 2018-Oct-10 09:51     09 48 13.906037 +14 47 25.34487
 2018-Oct-10 09:52     09 48 13.961844 +14 47 25.03877
 2018-Oct-10 09:53     09 48 14.017650 +14 47 24.73267
 2018-Oct-10 09:54     09 48 14.073453 +14 47 24.42658
 2018-Oct-10 09:55     09 48 14.129253 +14 47 24.12050
 2018-Oct-10 09:56     09 48 14.185051 +14 47 23.81442
 2018-Oct-10 09:57     09 48 14.240847 +14 47 23.50836
 2018-Oct-10 09:58     09 48 14.296640 +14 47 23.20231
 2018-Oct-10 09:59     09 48 14.352430 +14 47 22.89626
 2018-Oct-10 10:00     09 48 14.408218 +14 47 22.59022
 2018-Oct-10 10:01     09 48 14.464003 +14 47 22.28419
 2018-Oct-10 10:02     09 48 14.519786 +14 47 21.97817
 2018-Oct-10 10:03     09 48 14.575567 +14 47 21.67215
 2018-Oct-10 10:04     09 48 14.631344 +14 47 21.36615
 2018-Oct-10 10:05     09 48 14.687119 +14 47 21.06015
 2018-Oct-10 10:06     09 48 14.742892 +14 47 20.75416
 2018-Oct-10 10:07     09 48 14.798662 +14 47 20.44818
 2018-Oct-10 10:08     09 48 14.854429 +14 47 20.14220
 2018-Oct-10 10:09     09 48 14.910194 +14 47 19.83624
 2018-Oct-10 10:10     09 48 14.965956 +14 47 19.53028
 2018-Oct-10 10:11     09 48 15.021715 +14 47 19.22433
 2018-Oct-10 10:12     09 48 15.077472 +14 47 18.91839
 2018-Oct-10 10:13     09 48 15.133226 +14 47 18.61245
 2018-Oct-10 10:14     09 48 15.188978 +14 47 18.30653
 2018-Oct-10 10:15     09 48 15.244726 +14 47 18.00061
 2018-Oct-10 10:16     09 48 15.300472 +14 47 17.69470
 2018-Oct-10 10:17     09 48 15.356216 +14 47 17.38879
 2018-Oct-10 10:18     09 48 15.411956 +14 47 17.08290
 2018-Oct-10 10:19     09 48 15.467694 +14 47 16.77701
 2018-Oct-10 10:20     09 48 15.523430 +14 47 16.47113
